LEMUR-1                 
1 40044U 14033AL  26189.91912601  .00001245  00000+0  14819-3 0  9995
2 40044  97.7901 339.2449 0048317   8.5943 351.6089 14.85324329648699
LEMUR-2-GREENBERG       
1 42837U 17042N   26189.97284137  .00011793  00000+0  38354-3 0  9991
2 42837  97.3832  10.5085 0007146 285.9327  74.1127 15.32018187491722
LEMUR-2-ANDIS           
1 42838U 17042P   26189.95083507  .00014212  00000+0  41045-3 0  9998
2 42838  97.3685  10.7481 0007105 284.4305  75.6150 15.35747627491796
LEMUR-2-MONSON          
1 42839U 17042Q   26189.96372630  .00009647  00000+0  34877-3 0  9999
2 42839  97.4094  10.4380 0005133 274.0465  86.0188 15.28644155491496
LEMUR-2-FURIAUS         
1 42840U 17042R   26189.45874100  .00011223  00000+0  37717-3 0  9993
2 42840  97.3781   7.9032 0006516 356.1929   3.9261 15.30975722491465
LEMUR-2-PETERG          
1 42841U 17042S   26189.94810303  .00015292  00000+0  45427-3 0  9990
2 42841  97.3999  15.0281 0002930 250.3592 109.7335 15.34864591491776
LEMUR-2-DEMBITZ         
1 42842U 17042T   26189.73984482  .00011664  00000+0  39206-3 0  9995
2 42842  97.3834  11.2222 0005126 303.4427  56.6324 15.30969559491645
LEMUR-2-ZACHARY         
1 42845U 17042W   26189.28440164  .00033943  00000+0  55966-3 0  9997
2 42845  97.3592  21.3972 0002315 284.3315  75.7681 15.52227477492473
LEMUR-2-AMANDA-SVANTE   
1 48269U 21034B   26189.73997594  .00024581  00000+0  70941-3 0  9991
2 48269  97.5750 268.6130 0004272 158.5579 201.5844 15.35673063284361
LEMUR-2-SPECIAL-K       
1 48273U 21034F   26189.78359953  .00202245  00000+0  14930-2 0  9992
2 48273  97.5632 278.3223 0005864 219.6394 140.4441 15.72370976285079
LEMUR-2-EMBRIONOVIS     
1 56970U 23084AQ  26189.93478431  .00009847  00000+0  26448-3 0  9993
2 56970  97.6310 334.9806 0007828 230.6435 129.4116 15.38115648171023
LEMUR-2-DEVERILL-M-T    
1 57391U 23100F   26188.69846859  .00016121  00000+0  39570-3 0  9998
2 57391  99.4460 233.3957 0004797 329.3522  30.7437 15.40821036164403
LEMUR-2-BASS            
1 58259U 23174D   26189.92896376  .00012717  00000+0  28203-3 0  9997
2 58259  97.3841 274.9551 0007970  96.9389 263.2766 15.43844277148711
LEMUR-2-JK0903EM1407    
1 58336U 23174CJ  26189.93310306  .00020142  00000+0  32614-3 0  9990
2 58336  97.3915 281.0332 0004193  53.9307 306.2334 15.52830500149109
LEMUR-2-MJR092620       
1 58340U 23174CN  26189.78722050  .00015065  00000+0  31355-3 0  9990
2 58340  97.3969 280.2255 0005936  51.2586 308.9193 15.45696002148980
LEMUR-2-NIMBUS2000      
1 58899U 24022A   26189.64523353  .00016384  00000+0  39955-3 0  9991
2 58899  97.4096  39.9264 0009407  49.8701 310.3369 15.40918823135575
